{
  "type": "FeatureCollection",
  "features": [
    {
      "type": "Feature",
      "properties": {
        "name": "Київське водосховище (Берегова лінія)",
        "type": "water_shoreline",
        "category": "reservoir",
        "region": "Київщина / Чернігівщина"
      },
      "geometry": {
        "type": "LineString",
        "coordinates": [
          [
            30.505,
            50.59
          ],
          [
            30.485,
            50.605
          ],
          [
            30.46,
            50.63
          ],
          [
            30.44,
            50.655
          ],
          [
            30.415,
            50.68
          ],
          [
            30.395,
            50.71
          ],
          [
            30.38,
            50.735
          ],
          [
            30.365,
            50.765
          ],
          [
            30.35,
            50.795
          ],
          [
            30.335,
            50.825
          ],
          [
            30.32,
            50.855
          ],
          [
            30.31,
            50.89
          ],
          [
            30.3,
            50.925
          ],
          [
            30.29,
            50.96
          ],
          [
            30.28,
            50.995
          ],
          [
            30.27,
            51.03
          ],
          [
            30.26,
            51.07
          ],
          [
            30.25,
            51.11
          ],
          [
            30.24,
            51.15
          ],
          [
            30.225,
            51.19
          ],
          [
            30.21,
            51.23
          ],
          [
            30.19,
            51.28
          ],
          [
            30.17,
            51.33
          ],
          [
            30.15,
            51.38
          ],
          [
            30.16,
            51.44
          ],
          [
            30.2,
            51.49
          ],
          [
            30.26,
            51.525
          ],
          [
            30.34,
            51.51
          ],
          [
            30.42,
            51.47
          ],
          [
            30.48,
            51.42
          ],
          [
            30.52,
            51.36
          ],
          [
            30.55,
            51.3
          ],
          [
            30.575,
            51.24
          ],
          [
            30.592,
            51.18
          ],
          [
            30.605,
            51.12
          ],
          [
            30.618,
            51.06
          ],
          [
            30.628,
            51.01
          ],
          [
            30.638,
            50.96
          ],
          [
            30.64,
            50.92
          ],
          [
            30.635,
            50.88
          ],
          [
            30.628,
            50.84
          ],
          [
            30.615,
            50.8
          ],
          [
            30.598,
            50.76
          ],
          [
            30.585,
            50.72
          ],
          [
            30.568,
            50.685
          ],
          [
            30.552,
            50.655
          ],
          [
            30.528,
            50.625
          ],
          [
            30.512,
            50.602
          ],
          [
            30.505,
            50.59
          ]
        ]
      }
    },
    {
      "type": "Feature",
      "properties": {
        "name": "Річище Дніпра в м. Київ (Берегова лінія)",
        "type": "water_shoreline",
        "category": "river",
        "region": "Київ"
      },
      "geometry": {
        "type": "LineString",
        "coordinates": [
          [
            30.51,
            50.55
          ],
          [
            30.52,
            50.525
          ],
          [
            30.53,
            50.495
          ],
          [
            30.535,
            50.465
          ],
          [
            30.555,
            50.435
          ],
          [
            30.57,
            50.41
          ],
          [
            30.585,
            50.375
          ],
          [
            30.575,
            50.34
          ],
          [
            30.56,
            50.31
          ],
          [
            30.57,
            50.27
          ],
          [
            30.59,
            50.23
          ],
          [
            30.62,
            50.21
          ],
          [
            30.65,
            50.23
          ],
          [
            30.63,
            50.28
          ],
          [
            30.615,
            50.32
          ],
          [
            30.605,
            50.36
          ],
          [
            30.595,
            50.4
          ],
          [
            30.585,
            50.435
          ],
          [
            30.575,
            50.465
          ],
          [
            30.56,
            50.495
          ],
          [
            30.545,
            50.53
          ],
          [
            30.53,
            50.56
          ],
          [
            30.51,
            50.55
          ]
        ]
      }
    },
    {
      "type": "Feature",
      "properties": {
        "name": "Канівське водосховище (Берегова лінія)",
        "type": "water_shoreline",
        "category": "reservoir",
        "region": "Київщина / Черкащина"
      },
      "geometry": {
        "type": "LineString",
        "coordinates": [
          [
            30.59,
            50.23
          ],
          [
            30.64,
            50.18
          ],
          [
            30.72,
            50.15
          ],
          [
            30.79,
            50.08
          ],
          [
            30.95,
            50.02
          ],
          [
            31.06,
            49.96
          ],
          [
            31.18,
            49.88
          ],
          [
            31.35,
            49.81
          ],
          [
            31.46,
            49.76
          ],
          [
            31.47,
            49.755
          ],
          [
            31.49,
            49.77
          ],
          [
            31.41,
            49.85
          ],
          [
            31.32,
            49.92
          ],
          [
            31.25,
            50
          ],
          [
            31.18,
            50.07
          ],
          [
            31.08,
            50.14
          ],
          [
            30.98,
            50.22
          ],
          [
            30.85,
            50.29
          ],
          [
            30.75,
            50.33
          ],
          [
            30.65,
            50.23
          ]
        ]
      }
    },
    {
      "type": "Feature",
      "properties": {
        "name": "Кременчуцьке водосховище (Берегова лінія)",
        "type": "water_shoreline",
        "category": "reservoir",
        "region": "Черкащина / Полтавщина / Кіровоградщина"
      },
      "geometry": {
        "type": "LineString",
        "coordinates": [
          [
            31.48,
            49.75
          ],
          [
            31.58,
            49.68
          ],
          [
            31.72,
            49.59
          ],
          [
            31.88,
            49.5
          ],
          [
            32.06,
            49.44
          ],
          [
            32.18,
            49.38
          ],
          [
            32.35,
            49.3
          ],
          [
            32.55,
            49.22
          ],
          [
            32.72,
            49.14
          ],
          [
            32.9,
            49.07
          ],
          [
            33.05,
            49.03
          ],
          [
            33.22,
            49.05
          ],
          [
            33.245,
            49.075
          ],
          [
            33.23,
            49.12
          ],
          [
            33.15,
            49.18
          ],
          [
            32.98,
            49.25
          ],
          [
            32.78,
            49.35
          ],
          [
            32.61,
            49.43
          ],
          [
            32.42,
            49.51
          ],
          [
            32.22,
            49.58
          ],
          [
            32.05,
            49.64
          ],
          [
            31.88,
            49.7
          ],
          [
            31.72,
            49.75
          ],
          [
            31.55,
            49.77
          ],
          [
            31.48,
            49.75
          ]
        ]
      }
    },
    {
      "type": "Feature",
      "properties": {
        "name": "Кам'янське водосховище (Берегова лінія)",
        "type": "water_shoreline",
        "category": "reservoir",
        "region": "Полтавщина / Дніпропетровщина"
      },
      "geometry": {
        "type": "LineString",
        "coordinates": [
          [
            33.42,
            49.04
          ],
          [
            33.6,
            48.96
          ],
          [
            33.82,
            48.88
          ],
          [
            34.05,
            48.78
          ],
          [
            34.32,
            48.66
          ],
          [
            34.55,
            48.56
          ],
          [
            34.58,
            48.54
          ],
          [
            34.62,
            48.57
          ],
          [
            34.4,
            48.69
          ],
          [
            34.15,
            48.82
          ],
          [
            33.9,
            48.92
          ],
          [
            33.68,
            49.01
          ],
          [
            33.45,
            49.06
          ]
        ]
      }
    },
    {
      "type": "Feature",
      "properties": {
        "name": "Дніпровське водосховище (Берегова лінія)",
        "type": "water_shoreline",
        "category": "reservoir",
        "region": "Дніпропетровщина / Запоріжжя"
      },
      "geometry": {
        "type": "LineString",
        "coordinates": [
          [
            34.6,
            48.53
          ],
          [
            34.8,
            48.49
          ],
          [
            35.02,
            48.45
          ],
          [
            35.15,
            48.37
          ],
          [
            35.18,
            48.25
          ],
          [
            35.16,
            48.12
          ],
          [
            35.12,
            47.98
          ],
          [
            35.08,
            47.88
          ],
          [
            35.085,
            47.868
          ],
          [
            35.12,
            47.875
          ],
          [
            35.18,
            47.99
          ],
          [
            35.24,
            48.13
          ],
          [
            35.26,
            48.26
          ],
          [
            35.2,
            48.38
          ],
          [
            35.11,
            48.46
          ],
          [
            34.9,
            48.51
          ],
          [
            34.62,
            48.54
          ]
        ]
      }
    },
    {
      "type": "Feature",
      "properties": {
        "name": "Каховський басейн та Нижній Дніпро (Берегова лінія)",
        "type": "water_shoreline",
        "category": "reservoir",
        "region": "Запоріжжя / Дніпропетровщина / Херсонщина"
      },
      "geometry": {
        "type": "LineString",
        "coordinates": [
          [
            35.09,
            47.85
          ],
          [
            34.98,
            47.72
          ],
          [
            34.85,
            47.6
          ],
          [
            34.62,
            47.56
          ],
          [
            34.4,
            47.57
          ],
          [
            34.15,
            47.48
          ],
          [
            33.9,
            47.36
          ],
          [
            33.68,
            47.18
          ],
          [
            33.45,
            46.96
          ],
          [
            33.32,
            46.84
          ],
          [
            33.15,
            46.74
          ],
          [
            32.95,
            46.68
          ],
          [
            32.65,
            46.63
          ],
          [
            32.4,
            46.58
          ],
          [
            32.15,
            46.54
          ],
          [
            31.95,
            46.56
          ],
          [
            31.7,
            46.6
          ],
          [
            31.72,
            46.52
          ],
          [
            32.25,
            46.48
          ],
          [
            32.6,
            46.55
          ],
          [
            32.85,
            46.6
          ],
          [
            33.2,
            46.72
          ],
          [
            33.48,
            46.88
          ],
          [
            33.72,
            47.1
          ],
          [
            34.02,
            47.28
          ],
          [
            34.35,
            47.42
          ],
          [
            34.65,
            47.5
          ],
          [
            34.95,
            47.52
          ],
          [
            35.25,
            47.58
          ],
          [
            35.32,
            47.72
          ],
          [
            35.15,
            47.84
          ]
        ]
      }
    },
    {
      "type": "Feature",
      "properties": {
        "name": "Чорноморська берегова лінія України (Межа моря та суші)",
        "type": "water_shoreline",
        "category": "coastline",
        "region": "Одещина / Миколаївщина / Херсонщина / Крим"
      },
      "geometry": {
        "type": "LineString",
        "coordinates": [
          [
            29.72,
            45.22
          ],
          [
            29.85,
            45.35
          ],
          [
            29.98,
            45.52
          ],
          [
            30.12,
            45.72
          ],
          [
            30.31,
            45.92
          ],
          [
            30.46,
            46.06
          ],
          [
            30.48,
            46.12
          ],
          [
            30.38,
            46.2
          ],
          [
            30.45,
            46.28
          ],
          [
            30.5,
            46.18
          ],
          [
            30.56,
            46.12
          ],
          [
            30.66,
            46.28
          ],
          [
            30.74,
            46.38
          ],
          [
            30.76,
            46.49
          ],
          [
            30.82,
            46.58
          ],
          [
            30.98,
            46.62
          ],
          [
            31.18,
            46.64
          ],
          [
            31.35,
            46.62
          ],
          [
            31.52,
            46.6
          ],
          [
            31.55,
            46.62
          ],
          [
            31.52,
            46.53
          ],
          [
            31.42,
            46.55
          ],
          [
            31.32,
            46.57
          ],
          [
            31.4,
            46.52
          ],
          [
            31.65,
            46.48
          ],
          [
            31.5,
            46.32
          ],
          [
            31.3,
            46.25
          ],
          [
            31.62,
            46.22
          ],
          [
            31.95,
            46.18
          ],
          [
            32.32,
            46.1
          ],
          [
            32.55,
            46.06
          ],
          [
            32.9,
            46.03
          ],
          [
            33.15,
            45.98
          ],
          [
            33.45,
            45.92
          ],
          [
            33.62,
            45.85
          ],
          [
            33.4,
            45.72
          ],
          [
            33.12,
            45.68
          ],
          [
            32.85,
            45.52
          ],
          [
            32.5,
            45.35
          ],
          [
            32.52,
            45.08
          ],
          [
            32.82,
            45.15
          ],
          [
            33.05,
            45.22
          ],
          [
            33.35,
            45.18
          ],
          [
            33.55,
            44.98
          ],
          [
            33.56,
            44.75
          ],
          [
            33.52,
            44.62
          ],
          [
            33.43,
            44.58
          ],
          [
            33.5,
            44.5
          ],
          [
            33.6,
            44.49
          ],
          [
            33.72,
            44.42
          ],
          [
            33.95,
            44.4
          ],
          [
            34.15,
            44.48
          ],
          [
            34.35,
            44.55
          ],
          [
            34.42,
            44.68
          ],
          [
            34.75,
            44.82
          ],
          [
            34.95,
            44.85
          ],
          [
            35.15,
            44.95
          ],
          [
            35.32,
            44.98
          ],
          [
            35.42,
            45.02
          ],
          [
            35.65,
            45.08
          ],
          [
            35.95,
            45.1
          ],
          [
            36.25,
            45.14
          ],
          [
            36.5,
            45.22
          ],
          [
            36.62,
            45.32
          ],
          [
            36.48,
            45.36
          ],
          [
            36.45,
            45.45
          ],
          [
            36.55,
            45.48
          ]
        ]
      }
    },
    {
      "type": "Feature",
      "properties": {
        "name": "Азовська берегова лінія України (Межа моря та суші)",
        "type": "water_shoreline",
        "category": "coastline",
        "region": "Крим / Херсонщина / Запоріжжя / Донеччина"
      },
      "geometry": {
        "type": "LineString",
        "coordinates": [
          [
            36.55,
            45.48
          ],
          [
            36.35,
            45.6
          ],
          [
            36.05,
            45.72
          ],
          [
            35.8,
            45.82
          ],
          [
            35.45,
            45.92
          ],
          [
            35.3,
            45.85
          ],
          [
            35.18,
            46
          ],
          [
            35.05,
            46.15
          ],
          [
            34.9,
            46.28
          ],
          [
            34.82,
            46.18
          ],
          [
            35,
            46.35
          ],
          [
            35.22,
            46.48
          ],
          [
            35.35,
            46.3
          ],
          [
            35.25,
            46.38
          ],
          [
            35.4,
            46.45
          ],
          [
            35.6,
            46.58
          ],
          [
            35.95,
            46.68
          ],
          [
            36.35,
            46.72
          ],
          [
            36.68,
            46.75
          ],
          [
            36.82,
            46.65
          ],
          [
            36.85,
            46.78
          ],
          [
            37.15,
            46.9
          ],
          [
            37.32,
            46.88
          ],
          [
            37.35,
            46.98
          ],
          [
            37.52,
            47.05
          ],
          [
            37.65,
            47.08
          ],
          [
            37.85,
            47.1
          ],
          [
            38.08,
            47.12
          ]
        ]
      }
    },
    {
      "type": "Feature",
      "properties": {
        "name": "Дністровське водосховище та Дністер (Берегова лінія)",
        "type": "water_shoreline",
        "category": "reservoir",
        "region": "Хмельниччина / Чернівеччина / Вінниччина"
      },
      "geometry": {
        "type": "LineString",
        "coordinates": [
          [
            26.72,
            48.6
          ],
          [
            26.85,
            48.58
          ],
          [
            27.02,
            48.62
          ],
          [
            27.2,
            48.6
          ],
          [
            27.35,
            48.58
          ],
          [
            27.48,
            48.55
          ],
          [
            27.55,
            48.52
          ],
          [
            27.7,
            48.45
          ],
          [
            27.88,
            48.42
          ],
          [
            28.05,
            48.35
          ],
          [
            28.25,
            48.2
          ]
        ]
      }
    },
    {
      "type": "Feature",
      "properties": {
        "name": "Річка Десна (Берегова лінія)",
        "type": "water_shoreline",
        "category": "river",
        "region": "Чернігівщина / Київщина"
      },
      "geometry": {
        "type": "LineString",
        "coordinates": [
          [
            33.25,
            52.25
          ],
          [
            33,
            52.05
          ],
          [
            32.55,
            51.75
          ],
          [
            32.1,
            51.58
          ],
          [
            31.6,
            51.5
          ],
          [
            31.32,
            51.48
          ],
          [
            31.1,
            51.35
          ],
          [
            30.92,
            51.1
          ],
          [
            30.8,
            50.85
          ],
          [
            30.65,
            50.62
          ],
          [
            30.55,
            50.53
          ]
        ]
      }
    },
    {
      "type": "Feature",
      "properties": {
        "name": "Сіверський Донець та Печенізьке водосховище (Берегова лінія)",
        "type": "water_shoreline",
        "category": "river",
        "region": "Харківщина / Донеччина / Луганщина"
      },
      "geometry": {
        "type": "LineString",
        "coordinates": [
          [
            36.85,
            50.25
          ],
          [
            36.95,
            50.1
          ],
          [
            37,
            49.95
          ],
          [
            36.85,
            49.82
          ],
          [
            36.65,
            49.7
          ],
          [
            36.75,
            49.55
          ],
          [
            37.05,
            49.38
          ],
          [
            37.3,
            49.22
          ],
          [
            37.6,
            49.1
          ],
          [
            37.85,
            49.02
          ],
          [
            38.15,
            48.95
          ],
          [
            38.45,
            48.92
          ],
          [
            38.75,
            48.88
          ],
          [
            39.15,
            48.75
          ],
          [
            39.55,
            48.65
          ],
          [
            39.8,
            48.55
          ]
        ]
      }
    }
  ]
}