{
  "type": "FeatureCollection",
  "name": "ukraine-frontline",
  "features": [
    {
      "type": "Feature",
      "properties": {
        "name": "Лінія бойового зіткнення",
        "name_en": "Line of Contact / Frontline",
        "type": "frontline",
        "status": "active_combat_zone"
      },
      "geometry": {
        "type": "LineString",
        "coordinates": [
          [
            37.75,
            50
          ],
          [
            37.742,
            49.88
          ],
          [
            37.721,
            49.72
          ],
          [
            37.82,
            49.62
          ],
          [
            37.94,
            49.56
          ],
          [
            37.962,
            49.49
          ],
          [
            37.985,
            49.38
          ],
          [
            38.005,
            49.23
          ],
          [
            38.021,
            49.12
          ],
          [
            38.03,
            49.03
          ],
          [
            38.14,
            48.97
          ],
          [
            38.24,
            48.92
          ],
          [
            38.252,
            48.86
          ],
          [
            38.18,
            48.81
          ],
          [
            38.08,
            48.75
          ],
          [
            37.97,
            48.71
          ],
          [
            37.86,
            48.6
          ],
          [
            37.842,
            48.58
          ],
          [
            37.94,
            48.53
          ],
          [
            37.972,
            48.47
          ],
          [
            37.96,
            48.43
          ],
          [
            37.9,
            48.4
          ],
          [
            37.86,
            48.38
          ],
          [
            37.84,
            48.33
          ],
          [
            37.58,
            48.3
          ],
          [
            37.47,
            48.28
          ],
          [
            37.38,
            48.26
          ],
          [
            37.34,
            48.28
          ],
          [
            37.33,
            48.21
          ],
          [
            37.32,
            48.16
          ],
          [
            37.3,
            48.14
          ],
          [
            37.32,
            48.09
          ],
          [
            37.37,
            48.04
          ],
          [
            37.3,
            47.99
          ],
          [
            37.24,
            47.95
          ],
          [
            37.19,
            47.86
          ],
          [
            37.25,
            47.78
          ],
          [
            37.08,
            47.79
          ],
          [
            36.98,
            47.81
          ],
          [
            36.83,
            47.84
          ],
          [
            36.81,
            47.76
          ],
          [
            36.63,
            47.74
          ],
          [
            36.46,
            47.69
          ],
          [
            36.26,
            47.65
          ],
          [
            36,
            47.53
          ],
          [
            35.88,
            47.51
          ],
          [
            35.84,
            47.44
          ],
          [
            35.82,
            47.42
          ],
          [
            35.61,
            47.51
          ],
          [
            35.37,
            47.54
          ],
          [
            35.28,
            47.43
          ],
          [
            35,
            47.38
          ],
          [
            34.65,
            47.5
          ],
          [
            34,
            47.2
          ],
          [
            33.37,
            46.84
          ],
          [
            33.08,
            46.73
          ],
          [
            32.72,
            46.64
          ],
          [
            32.48,
            46.54
          ],
          [
            31.85,
            46.51
          ]
        ]
      }
    }
  ]
}